[{"OBJECT_NAME":"ARCSTONE","OBJECT_ID":"2025-135N","EPOCH":"2026-03-09T21:21:29.017152","MEAN_MOTION":15.28638458,"ECCENTRICITY":0.00041199,"INCLINATION":97.4495,"RA_OF_ASC_NODE":185.9194,"ARG_OF_PERICENTER":166.7863,"MEAN_ANOMALY":193.3485,"EPHEMERIS_TYPE":0,"CLASSIFICATION_TYPE":"U","NORAD_CAT_ID":64540,"ELEMENT_SET_NO":999,"REV_AT_EPOCH":3984,"BSTAR":0.00094899777,"MEAN_MOTION_DOT":0.00026427,"MEAN_MOTION_DDOT":0},{"OBJECT_NAME":"STARLINK-35790","OBJECT_ID":"2025-294AB","EPOCH":"2026-03-09T06:34:44.257440","MEAN_MOTION":15.27597489,"ECCENTRICITY":0.00010936,"INCLINATION":43.0018,"RA_OF_ASC_NODE":40.5866,"ARG_OF_PERICENTER":244.0498,"MEAN_ANOMALY":116.0241,"EPHEMERIS_TYPE":0,"CLASSIFICATION_TYPE":"U","NORAD_CAT_ID":67055,"ELEMENT_SET_NO":999,"REV_AT_EPOCH":1473,"BSTAR":0.00089206523,"MEAN_MOTION_DOT":0.0002438,"MEAN_MOTION_DDOT":0}]
